{
  "type": "FeatureCollection",
  "features": [
    {
      "type": "Feature",
      "properties": {
        "norad_id": 29798,
        "name": "FENGYUN 1C DEB",
        "group": "fengyun-1c-debris",
        "lat": 64.79874697984033,
        "lon": 29.854678931169506,
        "alt_km": 960.9516840310271,
        "timestamp": "2025-12-12T07:43:20.784633+00:00",
        "meta_object_name": "FENGYUN 1C DEB",
        "meta_object_id": "1999-025CQ",
        "meta_epoch": "2025-12-11T16:42:12.614976",
        "meta_mean_motion": 13.99562101,
        "meta_eccentricity": 0.01115212,
        "meta_inclination": 99.2951,
        "meta_ra_of_asc_node": 49.5852,
        "meta_arg_of_pericenter": 275.3262,
        "meta_mean_anomaly": 239.3198,
        "meta_ephemeris_type": 0,
        "meta_classification_type": "U",
        "meta_norad_cat_id": 29798,
        "meta_element_set_no": 999,
        "meta_rev_at_epoch": 95910,
        "meta_bstar": 0.0020026492,
        "meta_mean_motion_dot": 3.038e-05,
        "meta_mean_motion_ddot": 0,
        "tle_line1": "1 29798U 99025CQ  25345.69597934  .00003038  00000+0  20026-2 0  9996",
        "tle_line2": "2 29798  99.2951  49.5852 0111521 275.3262 239.3198 13.99562101959109"
      },
      "geometry": {
        "type": "Point",
        "coordinates": [
          29.854678931169506,
          64.79874697984033
        ]
      }
    },
    {
      "type": "Feature",
      "properties": {
        "norad_id": 29800,
        "name": "FENGYUN 1C DEB",
        "group": "fengyun-1c-debris",
        "lat": -54.49754602015161,
        "lon": 176.17916095536512,
        "alt_km": 809.3161527421735,
        "timestamp": "2025-12-12T07:43:20.784643+00:00",
        "meta_object_name": "FENGYUN 1C DEB",
        "meta_object_id": "1999-025CS",
        "meta_epoch": "2025-12-10T23:50:01.654944",
        "meta_mean_motion": 13.98548648,
        "meta_eccentricity": 0.01334633,
        "meta_inclination": 98.2897,
        "meta_ra_of_asc_node": 6.7701,
        "meta_arg_of_pericenter": 232.1976,
        "meta_mean_anomaly": 156.9457,
        "meta_ephemeris_type": 0,
        "meta_classification_type": "U",
        "meta_norad_cat_id": 29800,
        "meta_element_set_no": 999,
        "meta_rev_at_epoch": 95552,
        "meta_bstar": 0.0026591185,
        "meta_mean_motion_dot": 4.076e-05,
        "meta_mean_motion_ddot": 0,
        "tle_line1": "1 29800U 99025CS  25344.99307471  .00004076  00000+0  26591-2 0  9993",
        "tle_line2": "2 29800  98.2897   6.7701 0133463 232.1976 156.9457 13.98548648955524"
      },
      "geometry": {
        "type": "Point",
        "coordinates": [
          176.17916095536512,
          -54.49754602015161
        ]
      }
    },
    {
      "type": "Feature",
      "properties": {
        "norad_id": 29801,
        "name": "FENGYUN 1C DEB",
        "group": "fengyun-1c-debris",
        "lat": 73.99474791008659,
        "lon": 100.00135976954327,
        "alt_km": 836.061998550209,
        "timestamp": "2025-12-12T07:43:20.784653+00:00",
        "meta_object_name": "FENGYUN 1C DEB",
        "meta_object_id": "1999-025CT",
        "meta_epoch": "2025-12-11T16:16:47.163360",
        "meta_mean_motion": 14.35895099,
        "meta_eccentricity": 0.0102832,
        "meta_inclination": 98.7949,
        "meta_ra_of_asc_node": 246.6802,
        "meta_arg_of_pericenter": 270.5569,
        "meta_mean_anomaly": 108.9299,
        "meta_ephemeris_type": 0,
        "meta_classification_type": "U",
        "meta_norad_cat_id": 29801,
        "meta_element_set_no": 999,
        "meta_rev_at_epoch": 98926,
        "meta_bstar": 0.00030914472,
        "meta_mean_motion_dot": 9.03e-06,
        "meta_mean_motion_ddot": 0,
        "tle_line1": "1 29801U 99025CT  25345.67832365  .00000903  00000+0  30914-3 0  9995",
        "tle_line2": "2 29801  98.7949 246.6802 0102832 270.5569 108.9299 14.35895099989261"
      },
      "geometry": {
        "type": "Point",
        "coordinates": [
          100.00135976954327,
          73.99474791008659
        ]
      }
    },
    {
      "type": "Feature",
      "properties": {
        "norad_id": 29802,
        "name": "FENGYUN 1C DEB",
        "group": "fengyun-1c-debris",
        "lat": 45.92730662952755,
        "lon": 86.40436998213619,
        "alt_km": 671.2580819306177,
        "timestamp": "2025-12-12T07:43:20.784664+00:00",
        "meta_object_name": "FENGYUN 1C DEB",
        "meta_object_id": "1999-025CU",
        "meta_epoch": "2025-12-11T20:34:43.750848",
        "meta_mean_motion": 14.62283872,
        "meta_eccentricity": 0.00370971,
        "meta_inclination": 98.6191,
        "meta_ra_of_asc_node": 94.9337,
        "meta_arg_of_pericenter": 341.5169,
        "meta_mean_anomaly": 141.9291,
        "meta_ephemeris_type": 0,
        "meta_classification_type": "U",
        "meta_norad_cat_id": 29802,
        "meta_element_set_no": 999,
        "meta_rev_at_epoch": 98460,
        "meta_bstar": 0.0036991033,
        "meta_mean_motion_dot": 0.00018842,
        "meta_mean_motion_ddot": 0,
        "tle_line1": "1 29802U 99025CU  25345.85745082  .00018842  00000+0  36991-2 0  9996",
        "tle_line2": "2 29802  98.6191  94.9337 0037097 341.5169 141.9291 14.62283872984604"
      },
      "geometry": {
        "type": "Point",
        "coordinates": [
          86.40436998213619,
          45.92730662952755
        ]
      }
    },
    {
      "type": "Feature",
      "properties": {
        "norad_id": 29804,
        "name": "FENGYUN 1C DEB",
        "group": "fengyun-1c-debris",
        "lat": 73.42179518627475,
        "lon": -154.07850540894054,
        "alt_km": 938.458087623475,
        "timestamp": "2025-12-12T07:43:20.784674+00:00",
        "meta_object_name": "FENGYUN 1C DEB",
        "meta_object_id": "1999-025CW",
        "meta_epoch": "2025-12-12T00:42:45.146880",
        "meta_mean_motion": 14.04322314,
        "meta_eccentricity": 0.00972082,
        "meta_inclination": 98.8056,
        "meta_ra_of_asc_node": 354.2605,
        "meta_arg_of_pericenter": 303.8502,
        "meta_mean_anomaly": 124.0526,
        "meta_ephemeris_type": 0,
        "meta_classification_type": "U",
        "meta_norad_cat_id": 29804,
        "meta_element_set_no": 999,
        "meta_rev_at_epoch": 96884,
        "meta_bstar": 0.00018271664,
        "meta_mean_motion_dot": 2.59e-06,
        "meta_mean_motion_ddot": 0,
        "tle_line1": "1 29804U 99025CW  25346.02968920  .00000259  00000+0  18272-3 0  9992",
        "tle_line2": "2 29804  98.8056 354.2605 0097208 303.8502 124.0526 14.04322314968842"
      },
      "geometry": {
        "type": "Point",
        "coordinates": [
          -154.07850540894054,
          73.42179518627475
        ]
      }
    },
    {
      "type": "Feature",
      "properties": {
        "norad_id": 29805,
        "name": "FENGYUN 1C DEB",
        "group": "fengyun-1c-debris",
        "lat": -44.47652172078864,
        "lon": 47.01591276307603,
        "alt_km": 979.5157919716794,
        "timestamp": "2025-12-12T07:43:20.784684+00:00",
        "meta_object_name": "FENGYUN 1C DEB",
        "meta_object_id": "1999-025CX",
        "meta_epoch": "2025-12-11T14:27:03.396096",
        "meta_mean_motion": 13.72656474,
        "meta_eccentricity": 0.01879663,
        "meta_inclination": 99.4553,
        "meta_ra_of_asc_node": 36.8882,
        "meta_arg_of_pericenter": 232.7371,
        "meta_mean_anomaly": 125.6507,
        "meta_ephemeris_type": 0,
        "meta_classification_type": "U",
        "meta_norad_cat_id": 29805,
        "meta_element_set_no": 999,
        "meta_rev_at_epoch": 94687,
        "meta_bstar": 0.00024022895,
        "meta_mean_motion_dot": 2.05e-06,
        "meta_mean_motion_ddot": 0,
        "tle_line1": "1 29805U 99025CX  25345.60212264  .00000205  00000+0  24023-3 0  9991",
        "tle_line2": "2 29805  99.4553  36.8882 0187966 232.7371 125.6507 13.72656474946873"
      },
      "geometry": {
        "type": "Point",
        "coordinates": [
          47.01591276307603,
          -44.47652172078864
        ]
      }
    },
    {
      "type": "Feature",
      "properties": {
        "norad_id": 29806,
        "name": "FENGYUN 1C DEB",
        "group": "fengyun-1c-debris",
        "lat": 76.60949297562108,
        "lon": -137.77487516885103,
        "alt_km": 863.0181747658125,
        "timestamp": "2025-12-12T07:43:20.784694+00:00",
        "meta_object_name": "FENGYUN 1C DEB",
        "meta_object_id": "1999-025CY",
        "meta_epoch": "2025-12-12T00:44:10.806432",
        "meta_mean_motion": 14.12004225,
        "meta_eccentricity": 0.00275874,
        "meta_inclination": 98.7127,
        "meta_ra_of_asc_node": 1.8404,
        "meta_arg_of_pericenter": 253.9272,
        "meta_mean_anomaly": 167.5671,
        "meta_ephemeris_type": 0,
        "meta_classification_type": "U",
        "meta_norad_cat_id": 29806,
        "meta_element_set_no": 999,
        "meta_rev_at_epoch": 97129,
        "meta_bstar": 0.00075143228,
        "meta_mean_motion_dot": 1.337e-05,
        "meta_mean_motion_ddot": 0,
        "tle_line1": "1 29806U 99025CY  25346.03068063  .00001337  00000+0  75143-3 0  9992",
        "tle_line2": "2 29806  98.7127   1.8404 0027587 253.9272 167.5671 14.12004225971299"
      },
      "geometry": {
        "type": "Point",
        "coordinates": [
          -137.77487516885103,
          76.60949297562108
        ]
      }
    }
  ]
}